{"type": "FeatureCollection", "features": [ {"type": "Feature", "properties": {"norad_id": 44476, "name": "INTELSAT 39 (IS-39)", "group": "intelsat", "lat": -0.0350431387943282, "lon": -104.3460889883109, "alt_km": 35786.003573948525, "timestamp": "2025-12-09T07:41:32.871441+00:00", "meta": {"OBJECT_NAME": "INTELSAT 39 (IS-39)", "OBJECT_ID": "2019-049B", "EPOCH": "2025-12-08T22:34:38.601120", "MEAN_MOTION": 1.00273254, "ECCENTRICITY": 5.569e-05, "INCLINATION": 0.0171, "RA_OF_ASC_NODE": 322.4057, "ARG_OF_PERICENTER": 194.6768, "MEAN_ANOMALY": 321.4662, "EPHEMERIS_TYPE": 0, "CLASSIFICATION_TYPE": "U", "NORAD_CAT_ID": 44476, "ELEMENT_SET_NO": 999, "REV_AT_EPOCH": 2322, "BSTAR": 0, "MEAN_MOTION_DOT": 3.5e-07, "MEAN_MOTION_DDOT": 0}, "tle": {"line1": "1 44476U 19049B   25342.94072455  .00000035  00000+0  00000+0 0  9996", "line2": "2 44476   0.0171 322.4057 0000556 194.6768 321.4662  1.00273254 23223"}}, "geometry": {"type": "Point", "coordinates": [-104.3460889883109, -0.0350431387943282]}}, {"type": "Feature", "properties": {"norad_id": 46114, "name": "GALAXY 30 (G-30)", "group": "intelsat", "lat": 0.03812668086374474, "lon": 68.69597296456774, "alt_km": 35796.350727662466, "timestamp": "2025-12-09T07:41:32.871453+00:00", "meta": {"OBJECT_NAME": "GALAXY 30 (G-30)", "OBJECT_ID": "2020-056C", "EPOCH": "2025-12-08T16:25:58.490400", "MEAN_MOTION": 1.00271162, "ECCENTRICITY": 0.00024167, "INCLINATION": 0.018, "RA_OF_ASC_NODE": 351.851, "ARG_OF_PERICENTER": 264.437, "MEAN_ANOMALY": 302.8891, "EPHEMERIS_TYPE": 0, "CLASSIFICATION_TYPE": "U", "NORAD_CAT_ID": 46114, "ELEMENT_SET_NO": 999, "REV_AT_EPOCH": 1938, "BSTAR": 0, "MEAN_MOTION_DOT": 3.9e-07, "MEAN_MOTION_DDOT": 0}, "tle": {"line1": "1 46114U 20056C   25342.68470475  .00000039  00000+0  00000+0 0  9996", "line2": "2 46114   0.0180 351.8510 0002416 264.4370 302.8891  1.00271162 19381"}}, "geometry": {"type": "Point", "coordinates": [68.69597296456774, 0.03812668086374474]}}, {"type": "Feature", "properties": {"norad_id": 54026, "name": "GALAXY 33 (G-33)", "group": "intelsat", "lat": 0.030010113666307944, "lon": 60.70309801461764, "alt_km": 35795.49385516333, "timestamp": "2025-12-09T07:41:32.871465+00:00", "meta": {"OBJECT_NAME": "GALAXY 33 (G-33)", "OBJECT_ID": "2022-128A", "EPOCH": "2025-12-08T14:41:01.040640", "MEAN_MOTION": 1.00271783, "ECCENTRICITY": 0.00022673, "INCLINATION": 0.0159, "RA_OF_ASC_NODE": 302.3575, "ARG_OF_PERICENTER": 307.2936, "MEAN_ANOMALY": 275.2199, "EPHEMERIS_TYPE": 0, "CLASSIFICATION_TYPE": "U", "NORAD_CAT_ID": 54026, "ELEMENT_SET_NO": 999, "REV_AT_EPOCH": 1183, "BSTAR": 0, "MEAN_MOTION_DOT": 8.1e-07, "MEAN_MOTION_DDOT": 0}, "tle": {"line1": "1 54026U 22128A   25342.61181760  .00000081  00000+0  00000+0 0  9995", "line2": "2 54026   0.0159 302.3575 0002267 307.2936 275.2199  1.00271783 11833"}}, "geometry": {"type": "Point", "coordinates": [60.70309801461764, 0.030010113666307944]}}, {"type": "Feature", "properties": {"norad_id": 54027, "name": "GALAXY 34 (G-34)", "group": "intelsat", "lat": 0.04428849961787441, "lon": 64.76051002729217, "alt_km": 35791.92386220798, "timestamp": "2025-12-09T07:41:32.871478+00:00", "meta": {"OBJECT_NAME": "GALAXY 34 (G-34)", "OBJECT_ID": "2022-128B", "EPOCH": "2025-12-08T12:04:59.032992", "MEAN_MOTION": 1.00270185, "ECCENTRICITY": 0.00012919, "INCLINATION": 0.0269, "RA_OF_ASC_NODE": 317.8338, "ARG_OF_PERICENTER": 287.9468, "MEAN_ANOMALY": 244.0411, "EPHEMERIS_TYPE": 0, "CLASSIFICATION_TYPE": "U", "NORAD_CAT_ID": 54027, "ELEMENT_SET_NO": 999, "REV_AT_EPOCH": 1200, "BSTAR": 0, "MEAN_MOTION_DOT": 0, "MEAN_MOTION_DDOT": 0}, "tle": {"line1": "1 54027U 22128B   25342.50346103  .00000000  00000+0  00000+0 0  9999", "line2": "2 54027   0.0269 317.8338 0001291 287.9468 244.0411  1.00270185 12000"}}, "geometry": {"type": "Point", "coordinates": [64.76051002729217, 0.04428849961787441]}}, {"type": "Feature", "properties": {"norad_id": 54243, "name": "GALAXY 31 (G-31)", "group": "intelsat", "lat": 0.01551860065336783, "lon": 72.70640875786627, "alt_km": 35793.86080278839, "timestamp": "2025-12-09T07:41:32.871489+00:00", "meta": {"OBJECT_NAME": "GALAXY 31 (G-31)", "OBJECT_ID": "2022-153A", "EPOCH": "2025-12-08T21:35:10.619808", "MEAN_MOTION": 1.00271699, "ECCENTRICITY": 0.00019185, "INCLINATION": 0.0205, "RA_OF_ASC_NODE": 257.1315, "ARG_OF_PERICENTER": 12.3567, "MEAN_ANOMALY": 11.2077, "EPHEMERIS_TYPE": 0, "CLASSIFICATION_TYPE": "U", "NORAD_CAT_ID": 54243, "ELEMENT_SET_NO": 999, "REV_AT_EPOCH": 522, "BSTAR": 0, "MEAN_MOTION_DOT": 1.5e-07, "MEAN_MOTION_DDOT": 0}, "tle": {"line1": "1 54243U 22153A   25342.89942847  .00000015  00000+0  00000+0 0  9992", "line2": "2 54243   0.0205 257.1315 0001918  12.3567  11.2077  1.00271699  5226"}}, "geometry": {"type": "Point", "coordinates": [72.70640875786627, 0.01551860065336783]}}, {"type": "Feature", "properties": {"norad_id": 54244, "name": "GALAXY 32 (G-32)", "group": "intelsat", "lat": 0.025614483036041153, "lon": 102.7067548880827, "alt_km": 35796.83733520245, "timestamp": "2025-12-09T07:41:32.871501+00:00", "meta": {"OBJECT_NAME": "GALAXY 32 (G-32)", "OBJECT_ID": "2022-153B", "EPOCH": "2025-12-08T12:27:22.096800", "MEAN_MOTION": 1.00270602, "ECCENTRICITY": 0.00027139, "INCLINATION": 0.0093, "RA_OF_ASC_NODE": 341.4541, "ARG_OF_PERICENTER": 326.1977, "MEAN_ANOMALY": 225.7141, "EPHEMERIS_TYPE": 0, "CLASSIFICATION_TYPE": "U", "NORAD_CAT_ID": 54244, "ELEMENT_SET_NO": 999, "REV_AT_EPOCH": 1123, "BSTAR": 0, "MEAN_MOTION_DOT": -1.72e-06, "MEAN_MOTION_DDOT": 0}, "tle": {"line1": "1 54244U 22153B   25342.51900575 -.00000172  00000+0  00000+0 0  9999", "line2": "2 54244   0.0093 341.4541 0002713 326.1977 225.7141  1.00270602 11230"}}, "geometry": {"type": "Point", "coordinates": [102.7067548880827, 0.025614483036041153]}}, {"type": "Feature", "properties": {"norad_id": 54741, "name": "GALAXY 35 (G-35)", "group": "intelsat", "lat": 0.01837377748261334, "lon": 100.59996404921382, "alt_km": 35797.12356305117, "timestamp": "2025-12-09T07:41:32.871513+00:00", "meta": {"OBJECT_NAME": "GALAXY 35 (G-35)", "OBJECT_ID": "2022-170A", "EPOCH": "2025-12-08T21:43:17.342112", "MEAN_MOTION": 1.00271043, "ECCENTRICITY": 0.00026619, "INCLINATION": 0.0213, "RA_OF_ASC_NODE": 80.421, "ARG_OF_PERICENTER": 183.9163, "MEAN_ANOMALY": 46.3017, "EPHEMERIS_TYPE": 0, "CLASSIFICATION_TYPE": "U", "NORAD_CAT_ID": 54741, "ELEMENT_SET_NO": 999, "REV_AT_EPOCH": 1098, "BSTAR": 0, "MEAN_MOTION_DOT": -1.6e-06, "MEAN_MOTION_DDOT": 0}, "tle": {"line1": "1 54741U 22170A   25342.90506183 -.00000160  00000+0  00000+0 0  9997", "line2": "2 54741   0.0213  80.4210 0002661 183.9163  46.3017  1.00271043 10987"}}, "geometry": {"type": "Point", "coordinates": [100.59996404921382, 0.01837377748261334]}}, {"type": "Feature", "properties": {"norad_id": 54742, "name": "GALAXY 36 (G-36)", "group": "intelsat", "lat": 0.022679388599520206, "lon": 104.69275227129445, "alt_km": 35788.7826075267, "timestamp": "2025-12-09T07:41:32.871524+00:00", "meta": {"OBJECT_NAME": "GALAXY 36 (G-36)", "OBJECT_ID": "2022-170B", "EPOCH": "2025-12-08T21:44:24.734976", "MEAN_MOTION": 1.00270813, "ECCENTRICITY": 5.697e-05, "INCLINATION": 0.0079, "RA_OF_ASC_NODE": 28.8642, "ARG_OF_PERICENTER": 254.6251, "MEAN_ANOMALY": 31.516, "EPHEMERIS_TYPE": 0, "CLASSIFICATION_TYPE": "U", "NORAD_CAT_ID": 54742, "ELEMENT_SET_NO": 999, "REV_AT_EPOCH": 1086, "BSTAR": 0, "MEAN_MOTION_DOT": -1.83e-06, "MEAN_MOTION_DDOT": 0}, "tle": {"line1": "1 54742U 22170B   25342.90584184 -.00000183  00000+0  00000+0 0  9990", "line2": "2 54742   0.0079  28.8642 0000569 254.6251  31.5160  1.00270813 10868"}}, "geometry": {"type": "Point", "coordinates": [104.69275227129445, 0.022679388599520206]}}, {"type": "Feature", "properties": {"norad_id": 57493, "name": "GALAXY 37 (G-37)", "group": "intelsat", "lat": 0.03098982016125367, "lon": 66.70700408887821, "alt_km": 35795.715029102976, "timestamp": "2025-12-09T07:41:32.871536+00:00", "meta": {"OBJECT_NAME": "GALAXY 37 (G-37)", "OBJECT_ID": "2023-112A", "EPOCH": "2025-12-08T21:33:25.787232", "MEAN_MOTION": 1.0027141, "ECCENTRICITY": 0.00023504, "INCLINATION": 0.0105, "RA_OF_ASC_NODE": 333.573, "ARG_OF_PERICENTER": 289.258, "MEAN_ANOMALY": 11.4268, "EPHEMERIS_TYPE": 0, "CLASSIFICATION_TYPE": "U", "NORAD_CAT_ID": 57493, "ELEMENT_SET_NO": 999, "REV_AT_EPOCH": 863, "BSTAR": 0, "MEAN_MOTION_DOT": 5e-07, "MEAN_MOTION_DDOT": 0}, "tle": {"line1": "1 57493U 23112A   25342.89821513  .00000050  00000+0  00000+0 0  9993", "line2": "2 57493   0.0105 333.5730 0002350 289.2580  11.4268  1.00271410  8639"}}, "geometry": {"type": "Point", "coordinates": [66.70700408887821, 0.03098982016125367]}}]}